[{"OBJECT_NAME":"ONEWEB-0231","OBJECT_ID":"2021-045R","EPOCH":"2026-03-09T15:22:24.775392","MEAN_MOTION":13.15548032,"ECCENTRICITY":0.0001777,"INCLINATION":87.8939,"RA_OF_ASC_NODE":279.0747,"ARG_OF_PERICENTER":97.7344,"MEAN_ANOMALY":262.3988,"EPHEMERIS_TYPE":0,"CLASSIFICATION_TYPE":"U","NORAD_CAT_ID":48782,"ELEMENT_SET_NO":999,"REV_AT_EPOCH":23125,"BSTAR":0.00033447,"MEAN_MOTION_DOT":1.39e-6,"MEAN_MOTION_DDOT":0},{"OBJECT_NAME":"DELTA 1 DEB","OBJECT_ID":"1975-052ED","EPOCH":"2026-03-09T20:24:54.227232","MEAN_MOTION":13.28558412,"ECCENTRICITY":0.00809472,"INCLINATION":99.6579,"RA_OF_ASC_NODE":91.35,"ARG_OF_PERICENTER":325.665,"MEAN_ANOMALY":212.6214,"EPHEMERIS_TYPE":0,"CLASSIFICATION_TYPE":"U","NORAD_CAT_ID":21445,"ELEMENT_SET_NO":999,"REV_AT_EPOCH":68954,"BSTAR":0.00011407944,"MEAN_MOTION_DOT":1.2e-7,"MEAN_MOTION_DDOT":0}]
